[{"OBJECT_NAME":"ONEWEB-0392","OBJECT_ID":"2021-132D","EPOCH":"2025-07-30T13:36:15.195456","MEAN_MOTION":13.17649768,"ECCENTRICITY":0.00015,"INCLINATION":87.9036,"RA_OF_ASC_NODE":69.8485,"ARG_OF_PERICENTER":95.2671,"MEAN_ANOMALY":264.8632,"EPHEMERIS_TYPE":0,"CLASSIFICATION_TYPE":"U","NORAD_CAT_ID":50472,"ELEMENT_SET_NO":999,"REV_AT_EPOCH":17576,"BSTAR":-0.0001028,"MEAN_MOTION_DOT":-2.7e-7,"MEAN_MOTION_DDOT":0},{"OBJECT_NAME":"ONEWEB-0393","OBJECT_ID":"2021-132E","EPOCH":"2025-07-30T14:46:55.430112","MEAN_MOTION":13.17650455,"ECCENTRICITY":0.0001623,"INCLINATION":87.9045,"RA_OF_ASC_NODE":69.8574,"ARG_OF_PERICENTER":88.3984,"MEAN_ANOMALY":271.7333,"EPHEMERIS_TYPE":0,"CLASSIFICATION_TYPE":"U","NORAD_CAT_ID":50473,"ELEMENT_SET_NO":999,"REV_AT_EPOCH":17576,"BSTAR":1.9063e-5,"MEAN_MOTION_DOT":2.0e-7,"MEAN_MOTION_DDOT":0},{"OBJECT_NAME":"ONEWEB-0394","OBJECT_ID":"2021-132F","EPOCH":"2025-07-30T12:47:49.201440","MEAN_MOTION":13.18688174,"ECCENTRICITY":0.000178,"INCLINATION":87.9125,"RA_OF_ASC_NODE":39.3322,"ARG_OF_PERICENTER":95.0369,"MEAN_ANOMALY":265.0966,"EPHEMERIS_TYPE":0,"CLASSIFICATION_TYPE":"U","NORAD_CAT_ID":50474,"ELEMENT_SET_NO":999,"REV_AT_EPOCH":17920,"BSTAR":7.0856e-5,"MEAN_MOTION_DOT":4.1e-7,"MEAN_MOTION_DDOT":0},{"OBJECT_NAME":"ONEWEB-0395","OBJECT_ID":"2021-132G","EPOCH":"2025-07-30T21:09:07.252416","MEAN_MOTION":13.11414649,"ECCENTRICITY":0.0001432,"INCLINATION":87.8804,"RA_OF_ASC_NODE":85.125,"ARG_OF_PERICENTER":80.9856,"MEAN_ANOMALY":279.1433,"EPHEMERIS_TYPE":0,"CLASSIFICATION_TYPE":"U","NORAD_CAT_ID":50475,"ELEMENT_SET_NO":999,"REV_AT_EPOCH":17487,"BSTAR":0.0008372,"MEAN_MOTION_DOT":3.09e-6,"MEAN_MOTION_DDOT":0},{"OBJECT_NAME":"ONEWEB-0396","OBJECT_ID":"2021-132H","EPOCH":"2025-07-30T12:38:19.396032","MEAN_MOTION":13.18684835,"ECCENTRICITY":0.0001786,"INCLINATION":87.9124,"RA_OF_ASC_NODE":39.3459,"ARG_OF_PERICENTER":92.7372,"MEAN_ANOMALY":267.3964,"EPHEMERIS_TYPE":0,"CLASSIFICATION_TYPE":"U","NORAD_CAT_ID":50476,"ELEMENT_SET_NO":999,"REV_AT_EPOCH":17924,"BSTAR":1.5445e-5,"MEAN_MOTION_DOT":1.9e-7,"MEAN_MOTION_DDOT":0},{"OBJECT_NAME":"ONEWEB-0397","OBJECT_ID":"2021-132J","EPOCH":"2025-07-30T12:59:42.666720","MEAN_MOTION":13.18686201,"ECCENTRICITY":0.0001944,"INCLINATION":87.9123,"RA_OF_ASC_NODE":39.3442,"ARG_OF_PERICENTER":93.5835,"MEAN_ANOMALY":266.5519,"EPHEMERIS_TYPE":0,"CLASSIFICATION_TYPE":"U","NORAD_CAT_ID":50477,"ELEMENT_SET_NO":999,"REV_AT_EPOCH":17922,"BSTAR":0.00012084,"MEAN_MOTION_DOT":6.1e-7,"MEAN_MOTION_DDOT":0},{"OBJECT_NAME":"ONEWEB-0398","OBJECT_ID":"2021-132K","EPOCH":"2025-07-30T14:53:07.719072","MEAN_MOTION":13.11419001,"ECCENTRICITY":0.0001518,"INCLINATION":87.8808,"RA_OF_ASC_NODE":85.1401,"ARG_OF_PERICENTER":66.7881,"MEAN_ANOMALY":293.3406,"EPHEMERIS_TYPE":0,"CLASSIFICATION_TYPE":"U","NORAD_CAT_ID":50478,"ELEMENT_SET_NO":999,"REV_AT_EPOCH":17346,"BSTAR":-0.0001232,"MEAN_MOTION_DOT":-3.1e-7,"MEAN_MOTION_DDOT":0},{"OBJECT_NAME":"ONEWEB-0399","OBJECT_ID":"2021-132L","EPOCH":"2025-07-30T14:33:35.104320","MEAN_MOTION":13.11418555,"ECCENTRICITY":0.0001848,"INCLINATION":87.8806,"RA_OF_ASC_NODE":85.1668,"ARG_OF_PERICENTER":89.7631,"MEAN_ANOMALY":270.3708,"EPHEMERIS_TYPE":0,"CLASSIFICATION_TYPE":"U","NORAD_CAT_ID":50479,"ELEMENT_SET_NO":999,"REV_AT_EPOCH":17345,"BSTAR":-0.0012252,"MEAN_MOTION_DOT":-4.22e-6,"MEAN_MOTION_DDOT":0},{"OBJECT_NAME":"ONEWEB-0400","OBJECT_ID":"2021-132M","EPOCH":"2025-07-30T17:56:38.052960","MEAN_MOTION":13.18686811,"ECCENTRICITY":0.0001629,"INCLINATION":87.9123,"RA_OF_ASC_NODE":39.2935,"ARG_OF_PERICENTER":84.2668,"MEAN_ANOMALY":275.865,"EPHEMERIS_TYPE":0,"CLASSIFICATION_TYPE":"U","NORAD_CAT_ID":50480,"ELEMENT_SET_NO":999,"REV_AT_EPOCH":18052,"BSTAR":-0.0001098,"MEAN_MOTION_DOT":-3.0e-7,"MEAN_MOTION_DDOT":0},{"OBJECT_NAME":"ONEWEB-0401","OBJECT_ID":"2021-132N","EPOCH":"2025-07-30T13:32:58.547328","MEAN_MOTION":13.18686881,"ECCENTRICITY":0.0002019,"INCLINATION":87.9125,"RA_OF_ASC_NODE":39.3255,"ARG_OF_PERICENTER":91.0101,"MEAN_ANOMALY":269.1263,"EPHEMERIS_TYPE":0,"CLASSIFICATION_TYPE":"U","NORAD_CAT_ID":50481,"ELEMENT_SET_NO":999,"REV_AT_EPOCH":17922,"BSTAR":0.00012904,"MEAN_MOTION_DOT":6.4e-7,"MEAN_MOTION_DDOT":0},{"OBJECT_NAME":"ONEWEB-0402","OBJECT_ID":"2021-132P","EPOCH":"2025-07-30T12:40:43.683168","MEAN_MOTION":13.18685987,"ECCENTRICITY":0.0002391,"INCLINATION":87.9123,"RA_OF_ASC_NODE":39.3265,"ARG_OF_PERICENTER":93.0597,"MEAN_ANOMALY":267.0809,"EPHEMERIS_TYPE":0,"CLASSIFICATION_TYPE":"U","NORAD_CAT_ID":50482,"ELEMENT_SET_NO":999,"REV_AT_EPOCH":17924,"BSTAR":-1.8284e-5,"MEAN_MOTION_DOT":6.0e-8,"MEAN_MOTION_DDOT":0},{"OBJECT_NAME":"ONEWEB-0403","OBJECT_ID":"2021-132Q","EPOCH":"2025-07-30T13:16:21.588096","MEAN_MOTION":13.18687197,"ECCENTRICITY":0.0001713,"INCLINATION":87.9126,"RA_OF_ASC_NODE":39.3402,"ARG_OF_PERICENTER":91.624,"MEAN_ANOMALY":268.5088,"EPHEMERIS_TYPE":0,"CLASSIFICATION_TYPE":"U","NORAD_CAT_ID":50483,"ELEMENT_SET_NO":999,"REV_AT_EPOCH":17920,"BSTAR":0.00013028,"MEAN_MOTION_DOT":6.4e-7,"MEAN_MOTION_DDOT":0},{"OBJECT_NAME":"ONEWEB-0404","OBJECT_ID":"2021-132R","EPOCH":"2025-07-30T08:37:08.102784","MEAN_MOTION":13.11416149,"ECCENTRICITY":0.000151,"INCLINATION":87.881,"RA_OF_ASC_NODE":85.2205,"ARG_OF_PERICENTER":89.646,"MEAN_ANOMALY":270.4841,"EPHEMERIS_TYPE":0,"CLASSIFICATION_TYPE":"U","NORAD_CAT_ID":50484,"ELEMENT_SET_NO":999,"REV_AT_EPOCH":17351,"BSTAR":-0.00084664,"MEAN_MOTION_DOT":-2.87e-6,"MEAN_MOTION_DDOT":0},{"OBJECT_NAME":"ONEWEB-0405","OBJECT_ID":"2021-132S","EPOCH":"2025-07-30T13:37:42.735072","MEAN_MOTION":13.18687179,"ECCENTRICITY":0.0002069,"INCLINATION":87.9123,"RA_OF_ASC_NODE":39.3237,"ARG_OF_PERICENTER":94.3374,"MEAN_ANOMALY":265.7994,"EPHEMERIS_TYPE":0,"CLASSIFICATION_TYPE":"U","NORAD_CAT_ID":50485,"ELEMENT_SET_NO":999,"REV_AT_EPOCH":17960,"BSTAR":5.3479e-5,"MEAN_MOTION_DOT":3.4e-7,"MEAN_MOTION_DDOT":0},{"OBJECT_NAME":"ONEWEB-0406","OBJECT_ID":"2021-132T","EPOCH":"2025-07-30T13:23:28.137120","MEAN_MOTION":13.18685563,"ECCENTRICITY":0.0001264,"INCLINATION":87.9125,"RA_OF_ASC_NODE":39.3481,"ARG_OF_PERICENTER":95.7013,"MEAN_ANOMALY":264.4263,"EPHEMERIS_TYPE":0,"CLASSIFICATION_TYPE":"U","NORAD_CAT_ID":50486,"ELEMENT_SET_NO":999,"REV_AT_EPOCH":17923,"BSTAR":0.00011989,"MEAN_MOTION_DOT":6.0e-7,"MEAN_MOTION_DDOT":0},{"OBJECT_NAME":"ONEWEB-0407","OBJECT_ID":"2021-132U","EPOCH":"2025-07-30T20:31:01.959456","MEAN_MOTION":13.18685299,"ECCENTRICITY":0.0001904,"INCLINATION":87.9124,"RA_OF_ASC_NODE":39.2739,"ARG_OF_PERICENTER":92.9832,"MEAN_ANOMALY":267.1518,"EPHEMERIS_TYPE":0,"CLASSIFICATION_TYPE":"U","NORAD_CAT_ID":50487,"ELEMENT_SET_NO":999,"REV_AT_EPOCH":18050,"BSTAR":-6.2893e-5,"MEAN_MOTION_DOT":-1.2e-7,"MEAN_MOTION_DDOT":0},{"OBJECT_NAME":"ONEWEB-0409","OBJECT_ID":"2021-132V","EPOCH":"2025-07-30T21:23:46.242816","MEAN_MOTION":13.11416329,"ECCENTRICITY":0.0001424,"INCLINATION":87.88,"RA_OF_ASC_NODE":85.0753,"ARG_OF_PERICENTER":81.694,"MEAN_ANOMALY":278.4349,"EPHEMERIS_TYPE":0,"CLASSIFICATION_TYPE":"U","NORAD_CAT_ID":50488,"ELEMENT_SET_NO":999,"REV_AT_EPOCH":17475,"BSTAR":-0.00039458,"MEAN_MOTION_DOT":-1.27e-6,"MEAN_MOTION_DDOT":0}]
