ONEWEB-0392             
1 50472U 21132D   25211.56684254 -.00000027  00000+0 -10280-3 0  9992
2 50472  87.9036  69.8485 0001500  95.2671 264.8632 13.17649768175768
ONEWEB-0393             
1 50473U 21132E   25211.61591933  .00000020  00000+0  19063-4 0  9990
2 50473  87.9045  69.8574 0001623  88.3984 271.7333 13.17650455175764
ONEWEB-0394             
1 50474U 21132F   25211.53320835  .00000041  00000+0  70856-4 0  9993
2 50474  87.9125  39.3322 0001780  95.0369 265.0966 13.18688174179204
ONEWEB-0395             
1 50475U 21132G   25211.88133394  .00000309  00000+0  83720-3 0  9994
2 50475  87.8804  85.1250 0001432  80.9856 279.1433 13.11414649174875
ONEWEB-0396             
1 50476U 21132H   25211.52661338  .00000019  00000+0  15445-4 0  9998
2 50476  87.9124  39.3459 0001786  92.7372 267.3964 13.18684835179247
ONEWEB-0397             
1 50477U 21132J   25211.54146605  .00000061  00000+0  12084-3 0  9998
2 50477  87.9123  39.3442 0001944  93.5835 266.5519 13.18686201179222
ONEWEB-0398             
1 50478U 21132K   25211.62022823 -.00000031  00000+0 -12320-3 0  9995
2 50478  87.8808  85.1401 0001518  66.7881 293.3406 13.11419001173464
ONEWEB-0399             
1 50479U 21132L   25211.60665630 -.00000422  00000+0 -12252-2 0  9990
2 50479  87.8806  85.1668 0001848  89.7631 270.3708 13.11418555173454
ONEWEB-0400             
1 50480U 21132M   25211.74766265 -.00000030  00000+0 -10980-3 0  9995
2 50480  87.9123  39.2935 0001629  84.2668 275.8650 13.18686811180524
ONEWEB-0401             
1 50481U 21132N   25211.56456652  .00000064  00000+0  12904-3 0  9995
2 50481  87.9125  39.3255 0002019  91.0101 269.1263 13.18686881179223
ONEWEB-0402             
1 50482U 21132P   25211.52828337  .00000006  00000+0 -18284-4 0  9990
2 50482  87.9123  39.3265 0002391  93.0597 267.0809 13.18685987179248
ONEWEB-0403             
1 50483U 21132Q   25211.55302764  .00000064  00000+0  13028-3 0  9998
2 50483  87.9126  39.3402 0001713  91.6240 268.5088 13.18687197179207
ONEWEB-0404             
1 50484U 21132R   25211.35912156 -.00000287  00000+0 -84664-3 0  9992
2 50484  87.8810  85.2205 0001510  89.6460 270.4841 13.11416149173511
ONEWEB-0405             
1 50485U 21132S   25211.56785573  .00000034  00000+0  53479-4 0  9996
2 50485  87.9123  39.3237 0002069  94.3374 265.7994 13.18687179179604
ONEWEB-0406             
1 50486U 21132T   25211.55796455  .00000060  00000+0  11989-3 0  9995
2 50486  87.9125  39.3481 0001264  95.7013 264.4263 13.18685563179238
ONEWEB-0407             
1 50487U 21132U   25211.85488379 -.00000012  00000+0 -62893-4 0  9992
2 50487  87.9124  39.2739 0001904  92.9832 267.1518 13.18685299180503
ONEWEB-0409             
1 50488U 21132V   25211.89150744 -.00000127  00000+0 -39458-3 0  9996
2 50488  87.8800  85.0753 0001424  81.6940 278.4349 13.11416329174757
